{
  "type": "FeatureCollection",
  "features": [
    {
      "type": "Feature",
      "properties": {
        "norad_id": 66331,
        "name": "STARLINK-35257",
        "group": "last-30-days",
        "lat": -0.08395112325780135,
        "lon": 28.651167316662036,
        "alt_km": 414.2719115090622,
        "timestamp": "2025-12-05T04:52:14.140300+00:00",
        "meta_object_name": "STARLINK-35257",
        "meta_object_id": "2025-253N",
        "meta_epoch": "2025-12-04T11:52:06.845952",
        "meta_mean_motion": 15.50730679,
        "meta_eccentricity": 0.0003789,
        "meta_inclination": 43.0004,
        "meta_ra_of_asc_node": 32.8876,
        "meta_arg_of_pericenter": 251.6624,
        "meta_mean_anomaly": 108.3824,
        "meta_ephemeris_type": 0,
        "meta_classification_type": "U",
        "meta_norad_cat_id": 66331,
        "meta_element_set_no": 999,
        "meta_rev_at_epoch": 565,
        "meta_bstar": 0.0028129,
        "meta_mean_motion_dot": 0.00169226,
        "meta_mean_motion_ddot": 0,
        "tle_line1": "1 66331U 25253N   25338.49452368  .00169226  00000+0  28129-2 0  9997",
        "tle_line2": "2 66331  43.0004  32.8876 0003789 251.6624 108.3824 15.50730679  5654"
      },
      "geometry": {
        "type": "Point",
        "coordinates": [
          28.651167316662036,
          -0.08395112325780135
        ]
      }
    },
    {
      "type": "Feature",
      "properties": {
        "norad_id": 66332,
        "name": "STARLINK-35322",
        "group": "last-30-days",
        "lat": -42.571359156612196,
        "lon": -51.382266762085415,
        "alt_km": 447.09022966847624,
        "timestamp": "2025-12-05T04:52:14.140327+00:00",
        "meta_object_name": "STARLINK-35322",
        "meta_object_id": "2025-253P",
        "meta_epoch": "2025-12-04T18:00:02.000160",
        "meta_mean_motion": 15.40741246,
        "meta_eccentricity": 6.08e-05,
        "meta_inclination": 43.0006,
        "meta_ra_of_asc_node": 31.5554,
        "meta_arg_of_pericenter": 275.2547,
        "meta_mean_anomaly": 6.7559,
        "meta_ephemeris_type": 0,
        "meta_classification_type": "U",
        "meta_norad_cat_id": 66332,
        "meta_element_set_no": 999,
        "meta_rev_at_epoch": 564,
        "meta_bstar": -0.0020735,
        "meta_mean_motion_dot": -0.0008606,
        "meta_mean_motion_ddot": 0,
        "tle_line1": "1 66332U 25253P   25338.75002315 -.00086060  00000+0 -20735-2 0  9991",
        "tle_line2": "2 66332  43.0006  31.5554 0000608 275.2547   6.7559 15.40741246  5645"
      },
      "geometry": {
        "type": "Point",
        "coordinates": [
          -51.382266762085415,
          -42.571359156612196
        ]
      }
    },
    {
      "type": "Feature",
      "properties": {
        "norad_id": 66333,
        "name": "STARLINK-35400",
        "group": "last-30-days",
        "lat": -10.486481386565595,
        "lon": 17.322543046493426,
        "alt_km": 432.1799668390895,
        "timestamp": "2025-12-05T04:52:14.140340+00:00",
        "meta_object_name": "STARLINK-35400",
        "meta_object_id": "2025-253Q",
        "meta_epoch": "2025-12-04T18:00:02.000160",
        "meta_mean_motion": 15.47020537,
        "meta_eccentricity": 0.000161,
        "meta_inclination": 43.0007,
        "meta_ra_of_asc_node": 31.4106,
        "meta_arg_of_pericenter": 267.7675,
        "meta_mean_anomaly": 73.0776,
        "meta_ephemeris_type": 0,
        "meta_classification_type": "U",
        "meta_norad_cat_id": 66333,
        "meta_element_set_no": 999,
        "meta_rev_at_epoch": 564,
        "meta_bstar": -0.045601,
        "meta_mean_motion_dot": -0.02094539,
        "meta_mean_motion_ddot": 0,
        "tle_line1": "1 66333U 25253Q   25338.75002315 -.02094539  00000+0 -45601-1 0  9992",
        "tle_line2": "2 66333  43.0007  31.4106 0001610 267.7675  73.0776 15.47020537  5649"
      },
      "geometry": {
        "type": "Point",
        "coordinates": [
          17.322543046493426,
          -10.486481386565595
        ]
      }
    },
    {
      "type": "Feature",
      "properties": {
        "norad_id": 66334,
        "name": "STARLINK-35407",
        "group": "last-30-days",
        "lat": -30.134433285450633,
        "lon": -112.40461000845603,
        "alt_km": 445.595826299641,
        "timestamp": "2025-12-05T04:52:14.140355+00:00",
        "meta_object_name": "STARLINK-35407",
        "meta_object_id": "2025-253R",
        "meta_epoch": "2025-12-04T18:00:02.000160",
        "meta_mean_motion": 15.40618025,
        "meta_eccentricity": 0.0002047,
        "meta_inclination": 43.0005,
        "meta_ra_of_asc_node": 31.6759,
        "meta_arg_of_pericenter": 252.3467,
        "meta_mean_anomaly": 340.0074,
        "meta_ephemeris_type": 0,
        "meta_classification_type": "U",
        "meta_norad_cat_id": 66334,
        "meta_element_set_no": 999,
        "meta_rev_at_epoch": 564,
        "meta_bstar": 0.0015874,
        "meta_mean_motion_dot": 0.00066405,
        "meta_mean_motion_ddot": 0,
        "tle_line1": "1 66334U 25253R   25338.75002315  .00066405  00000+0  15874-2 0  9990",
        "tle_line2": "2 66334  43.0005  31.6759 0002047 252.3467 340.0074 15.40618025  5644"
      },
      "geometry": {
        "type": "Point",
        "coordinates": [
          -112.40461000845603,
          -30.134433285450633
        ]
      }
    },
    {
      "type": "Feature",
      "properties": {
        "norad_id": 66335,
        "name": "STARLINK-35417",
        "group": "last-30-days",
        "lat": 17.893989555960424,
        "lon": -171.02909859195168,
        "alt_km": 440.9681258990686,
        "timestamp": "2025-12-05T04:52:14.140367+00:00",
        "meta_object_name": "STARLINK-35417",
        "meta_object_id": "2025-253S",
        "meta_epoch": "2025-12-04T12:39:05.398848",
        "meta_mean_motion": 15.40748615,
        "meta_eccentricity": 0.0001535,
        "meta_inclination": 43.0008,
        "meta_ra_of_asc_node": 33.1389,
        "meta_arg_of_pericenter": 260.139,
        "meta_mean_anomaly": 99.9293,
        "meta_ephemeris_type": 0,
        "meta_classification_type": "U",
        "meta_norad_cat_id": 66335,
        "meta_element_set_no": 999,
        "meta_rev_at_epoch": 565,
        "meta_bstar": 0.0028892,
        "meta_mean_motion_dot": 0.00122539,
        "meta_mean_motion_ddot": 0,
        "tle_line1": "1 66335U 25253S   25338.52714582  .00122539  00000+0  28892-2 0  9997",
        "tle_line2": "2 66335  43.0008  33.1389 0001535 260.1390  99.9293 15.40748615  5650"
      },
      "geometry": {
        "type": "Point",
        "coordinates": [
          -171.02909859195168,
          17.893989555960424
        ]
      }
    },
    {
      "type": "Feature",
      "properties": {
        "norad_id": 66336,
        "name": "STARLINK-35404",
        "group": "last-30-days",
        "lat": 0.8563744938781367,
        "lon": 29.662062634421208,
        "alt_km": 413.80863237334506,
        "timestamp": "2025-12-05T04:52:14.140379+00:00",
        "meta_object_name": "STARLINK-35404",
        "meta_object_id": "2025-253T",
        "meta_epoch": "2025-12-04T13:24:23.446944",
        "meta_mean_motion": 15.50567443,
        "meta_eccentricity": 0.0001415,
        "meta_inclination": 42.9972,
        "meta_ra_of_asc_node": 32.5133,
        "meta_arg_of_pericenter": 288.46,
        "meta_mean_anomaly": 71.6106,
        "meta_ephemeris_type": 0,
        "meta_classification_type": "U",
        "meta_norad_cat_id": 66336,
        "meta_element_set_no": 999,
        "meta_rev_at_epoch": 566,
        "meta_bstar": 0.0026146,
        "meta_mean_motion_dot": 0.00156074,
        "meta_mean_motion_ddot": 0,
        "tle_line1": "1 66336U 25253T   25338.55860471  .00156074  00000+0  26146-2 0  9991",
        "tle_line2": "2 66336  42.9972  32.5133 0001415 288.4600  71.6106 15.50567443  5663"
      },
      "geometry": {
        "type": "Point",
        "coordinates": [
          29.662062634421208,
          0.8563744938781367
        ]
      }
    },
    {
      "type": "Feature",
      "properties": {
        "norad_id": 66337,
        "name": "STARLINK-34783",
        "group": "last-30-days",
        "lat": 1.5543791376911096,
        "lon": -152.4832855519583,
        "alt_km": 444.16084789275465,
        "timestamp": "2025-12-05T04:52:14.140391+00:00",
        "meta_object_name": "STARLINK-34783",
        "meta_object_id": "2025-253U",
        "meta_epoch": "2025-12-04T16:00:01.998720",
        "meta_mean_motion": 15.40623589,
        "meta_eccentricity": 0.0001496,
        "meta_inclination": 43.0004,
        "meta_ra_of_asc_node": 32.276,
        "meta_arg_of_pericenter": 286.7113,
        "meta_mean_anomaly": 153.1997,
        "meta_ephemeris_type": 0,
        "meta_classification_type": "U",
        "meta_norad_cat_id": 66337,
        "meta_element_set_no": 999,
        "meta_rev_at_epoch": 568,
        "meta_bstar": 0.00051256,
        "meta_mean_motion_dot": 0.00021113,
        "meta_mean_motion_ddot": 0,
        "tle_line1": "1 66337U 25253U   25338.66668980  .00021113  00000+0  51256-3 0  9991",
        "tle_line2": "2 66337  43.0004  32.2760 0001496 286.7113 153.1997 15.40623589  5683"
      },
      "geometry": {
        "type": "Point",
        "coordinates": [
          -152.4832855519583,
          1.5543791376911096
        ]
      }
    }
  ]
}